{"type":"FeatureCollection","metadata":{"generated":1786984833000,"url":"https://earthquake.usgs.gov/fdsnws/event/1/query?format=geojson&starttime=2009-09-30T10%3A15%3A00&endtime=2009-09-30T10%3A17%3A30&minmagnitude=7.4&orderby=time-asc","title":"USGS Earthquakes","status":200,"api":"2.7.0","count":1},"features":[{"type":"Feature","properties":{"mag":7.6,"place":"30 km WSW of Pariaman, Indonesia","time":1254305769250,"updated":1701444204547,"tz":null,"url":"https://earthquake.usgs.gov/earthquakes/eventpage/usp000h237","detail":"https://earthquake.usgs.gov/fdsnws/event/1/query?eventid=usp000h237&format=geojson","felt":1027,"cdi":7.6,"mmi":8.221,"alert":null,"status":"reviewed","tsunami":0,"sig":1649,"net":"us","code":"p000h237","ids":",us2009mebz,usp000h237,choy20090930101609,gcmtc200909301016a,duputel200909301016a,gcmt20090930101609,atlas20090930101609,iscgem13801688,","sources":",us,us,choy,gcmt,duputel,gcmt,atlas,iscgem,","types":",associate,dyfi,finite-fault,focal-mechanism,general-text,ground-failure,impact-text,moment-tensor,origin,phase-data,poster,shakemap,trump-shakemap,","nst":498,"dmin":null,"rms":0.92,"gap":14,"magType":"mwc","type":"earthquake","title":"M 7.6 - 30 km WSW of Pariaman, Indonesia"},"geometry":{"type":"Point","coordinates":[99.867,-0.72,81]},"id":"usp000h237"}]}